[{"OBJECT_NAME":"ONEWEB-0658","OBJECT_ID":"2023-029Z","EPOCH":"2026-04-21T06:45:18.188064","MEAN_MOTION":13.19724187,"ECCENTRICITY":0.000197,"INCLINATION":87.9168,"RA_OF_ASC_NODE":316.295,"ARG_OF_PERICENTER":74.9401,"MEAN_ANOMALY":285.195,"EPHEMERIS_TYPE":0,"CLASSIFICATION_TYPE":"U","NORAD_CAT_ID":55819,"ELEMENT_SET_NO":999,"REV_AT_EPOCH":15141,"BSTAR":0.00018778,"MEAN_MOTION_DOT":8.8e-07,"MEAN_MOTION_DDOT":0.0},{"OBJECT_NAME":"ONEWEB-0660","OBJECT_ID":"2023-029AA","EPOCH":"2026-04-21T10:03:13.755744","MEAN_MOTION":13.14503795,"ECCENTRICITY":0.0002121,"INCLINATION":87.8924,"RA_OF_ASC_NODE":301.0268,"ARG_OF_PERICENTER":89.6314,"MEAN_ANOMALY":270.5059,"EPHEMERIS_TYPE":0,"CLASSIFICATION_TYPE":"U","NORAD_CAT_ID":55820,"ELEMENT_SET_NO":999,"REV_AT_EPOCH":15194,"BSTAR":0.00022747999999999998,"MEAN_MOTION_DOT":9.7e-07,"MEAN_MOTION_DDOT":0.0},{"OBJECT_NAME":"ONEWEB-0661","OBJECT_ID":"2023-029AB","EPOCH":"2026-04-21T05:24:38.617344","MEAN_MOTION":13.14502694,"ECCENTRICITY":0.0002065,"INCLINATION":87.8922,"RA_OF_ASC_NODE":301.117,"ARG_OF_PERICENTER":92.5284,"MEAN_ANOMALY":267.6082,"EPHEMERIS_TYPE":0,"CLASSIFICATION_TYPE":"U","NORAD_CAT_ID":55821,"ELEMENT_SET_NO":999,"REV_AT_EPOCH":15190,"BSTAR":-2.0796000000000002e-05,"MEAN_MOTION_DOT":5e-08,"MEAN_MOTION_DDOT":0.0},{"OBJECT_NAME":"ONEWEB-0662","OBJECT_ID":"2023-029AC","EPOCH":"2026-04-21T06:14:52.581984","MEAN_MOTION":13.14502703,"ECCENTRICITY":0.0002077,"INCLINATION":87.8912,"RA_OF_ASC_NODE":301.1175,"ARG_OF_PERICENTER":89.0502,"MEAN_ANOMALY":271.0865,"EPHEMERIS_TYPE":0,"CLASSIFICATION_TYPE":"U","NORAD_CAT_ID":55822,"ELEMENT_SET_NO":999,"REV_AT_EPOCH":15195,"BSTAR":-0.00019296,"MEAN_MOTION_DOT":-5.9e-07,"MEAN_MOTION_DDOT":0.0},{"OBJECT_NAME":"ONEWEB-0663","OBJECT_ID":"2023-029AD","EPOCH":"2026-04-20T21:27:52.706592","MEAN_MOTION":13.20865042,"ECCENTRICITY":0.0002172,"INCLINATION":87.9141,"RA_OF_ASC_NODE":285.9366,"ARG_OF_PERICENTER":86.1109,"MEAN_ANOMALY":274.0273,"EPHEMERIS_TYPE":0,"CLASSIFICATION_TYPE":"U","NORAD_CAT_ID":55823,"ELEMENT_SET_NO":999,"REV_AT_EPOCH":15358,"BSTAR":0.00013953,"MEAN_MOTION_DOT":7e-07,"MEAN_MOTION_DDOT":0.0},{"OBJECT_NAME":"ONEWEB-0664","OBJECT_ID":"2023-029AE","EPOCH":"2026-04-21T08:58:22.852704","MEAN_MOTION":13.20769178,"ECCENTRICITY":0.0002191,"INCLINATION":87.9124,"RA_OF_ASC_NODE":285.8282,"ARG_OF_PERICENTER":101.4102,"MEAN_ANOMALY":258.7278,"EPHEMERIS_TYPE":0,"CLASSIFICATION_TYPE":"U","NORAD_CAT_ID":55824,"ELEMENT_SET_NO":999,"REV_AT_EPOCH":15364,"BSTAR":-9.5084e-05,"MEAN_MOTION_DOT":-2.6e-07,"MEAN_MOTION_DDOT":0.0},{"OBJECT_NAME":"ONEWEB-0665","OBJECT_ID":"2023-029AF","EPOCH":"2026-04-21T05:20:04.390656","MEAN_MOTION":13.14501596,"ECCENTRICITY":0.0002045,"INCLINATION":87.8918,"RA_OF_ASC_NODE":301.0983,"ARG_OF_PERICENTER":86.2112,"MEAN_ANOMALY":273.9251,"EPHEMERIS_TYPE":0,"CLASSIFICATION_TYPE":"U","NORAD_CAT_ID":55825,"ELEMENT_SET_NO":999,"REV_AT_EPOCH":15192,"BSTAR":7.953700000000001e-06,"MEAN_MOTION_DOT":1.6e-07,"MEAN_MOTION_DDOT":0.0},{"OBJECT_NAME":"ONEWEB-0666","OBJECT_ID":"2023-029AG","EPOCH":"2026-04-21T05:11:04.632576","MEAN_MOTION":13.20770172,"ECCENTRICITY":0.0001126,"INCLINATION":87.9127,"RA_OF_ASC_NODE":285.8493,"ARG_OF_PERICENTER":100.7047,"MEAN_ANOMALY":259.4213,"EPHEMERIS_TYPE":0,"CLASSIFICATION_TYPE":"U","NORAD_CAT_ID":55826,"ELEMENT_SET_NO":999,"REV_AT_EPOCH":15363,"BSTAR":-0.00075938,"MEAN_MOTION_DOT":-2.96e-06,"MEAN_MOTION_DDOT":0.0},{"OBJECT_NAME":"ONEWEB-0667","OBJECT_ID":"2023-029AH","EPOCH":"2026-04-21T05:01:59.648160","MEAN_MOTION":13.20773319,"ECCENTRICITY":0.0001979,"INCLINATION":87.9144,"RA_OF_ASC_NODE":285.7986,"ARG_OF_PERICENTER":93.5325,"MEAN_ANOMALY":266.6035,"EPHEMERIS_TYPE":0,"CLASSIFICATION_TYPE":"U","NORAD_CAT_ID":55827,"ELEMENT_SET_NO":999,"REV_AT_EPOCH":15362,"BSTAR":0.00013976,"MEAN_MOTION_DOT":7e-07,"MEAN_MOTION_DDOT":0.0},{"OBJECT_NAME":"ONEWEB-0669","OBJECT_ID":"2023-029AJ","EPOCH":"2026-04-21T04:55:10.239168","MEAN_MOTION":13.20773304,"ECCENTRICITY":0.0001842,"INCLINATION":87.9125,"RA_OF_ASC_NODE":285.8171,"ARG_OF_PERICENTER":113.3912,"MEAN_ANOMALY":246.7415,"EPHEMERIS_TYPE":0,"CLASSIFICATION_TYPE":"U","NORAD_CAT_ID":55828,"ELEMENT_SET_NO":999,"REV_AT_EPOCH":15362,"BSTAR":0.00021914000000000002,"MEAN_MOTION_DOT":1.02e-06,"MEAN_MOTION_DDOT":0.0},{"OBJECT_NAME":"ONEWEB-0670","OBJECT_ID":"2023-029AK","EPOCH":"2026-04-21T06:37:43.084704","MEAN_MOTION":13.1449565,"ECCENTRICITY":0.0002353,"INCLINATION":87.8914,"RA_OF_ASC_NODE":301.1058,"ARG_OF_PERICENTER":94.3685,"MEAN_ANOMALY":265.7713,"EPHEMERIS_TYPE":0,"CLASSIFICATION_TYPE":"U","NORAD_CAT_ID":55829,"ELEMENT_SET_NO":999,"REV_AT_EPOCH":15195,"BSTAR":0.0039208,"MEAN_MOTION_DOT":1.466e-05,"MEAN_MOTION_DDOT":0.0},{"OBJECT_NAME":"ONEWEB-0671","OBJECT_ID":"2023-029AL","EPOCH":"2026-04-21T06:38:28.717728","MEAN_MOTION":13.19724708,"ECCENTRICITY":0.0001964,"INCLINATION":87.9159,"RA_OF_ASC_NODE":316.3263,"ARG_OF_PERICENTER":86.6383,"MEAN_ANOMALY":273.4974,"EPHEMERIS_TYPE":0,"CLASSIFICATION_TYPE":"U","NORAD_CAT_ID":55830,"ELEMENT_SET_NO":999,"REV_AT_EPOCH":15139,"BSTAR":0.00014341,"MEAN_MOTION_DOT":7e-07,"MEAN_MOTION_DDOT":0.0},{"OBJECT_NAME":"ONEWEB-0672","OBJECT_ID":"2023-029AM","EPOCH":"2026-04-21T04:48:22.139136","MEAN_MOTION":13.20769993,"ECCENTRICITY":0.0001562,"INCLINATION":87.9135,"RA_OF_ASC_NODE":285.8091,"ARG_OF_PERICENTER":100.2763,"MEAN_ANOMALY":259.8546,"EPHEMERIS_TYPE":0,"CLASSIFICATION_TYPE":"U","NORAD_CAT_ID":55831,"ELEMENT_SET_NO":999,"REV_AT_EPOCH":15362,"BSTAR":0.00025244,"MEAN_MOTION_DOT":1.16e-06,"MEAN_MOTION_DDOT":0.0},{"OBJECT_NAME":"ONEWEB-0673","OBJECT_ID":"2023-029AN","EPOCH":"2026-04-20T19:10:25.669344","MEAN_MOTION":13.19726132,"ECCENTRICITY":0.0001926,"INCLINATION":87.9172,"RA_OF_ASC_NODE":316.4084,"ARG_OF_PERICENTER":88.1768,"MEAN_ANOMALY":271.9585,"EPHEMERIS_TYPE":0,"CLASSIFICATION_TYPE":"U","NORAD_CAT_ID":55832,"ELEMENT_SET_NO":999,"REV_AT_EPOCH":15133,"BSTAR":8.7463e-05,"MEAN_MOTION_DOT":4.8e-07,"MEAN_MOTION_DDOT":0.0},{"OBJECT_NAME":"ONEWEB-0674","OBJECT_ID":"2023-029AP","EPOCH":"2026-04-21T05:52:02.544096","MEAN_MOTION":13.14502173,"ECCENTRICITY":0.0002105,"INCLINATION":87.8916,"RA_OF_ASC_NODE":301.0888,"ARG_OF_PERICENTER":98.2048,"MEAN_ANOMALY":261.932,"EPHEMERIS_TYPE":0,"CLASSIFICATION_TYPE":"U","NORAD_CAT_ID":55833,"ELEMENT_SET_NO":999,"REV_AT_EPOCH":15193,"BSTAR":-0.0005474,"MEAN_MOTION_DOT":-1.9e-06,"MEAN_MOTION_DDOT":0.0},{"OBJECT_NAME":"ONEWEB-0675","OBJECT_ID":"2023-029AQ","EPOCH":"2026-04-21T06:27:05.603040","MEAN_MOTION":13.19724034,"ECCENTRICITY":0.0001521,"INCLINATION":87.9158,"RA_OF_ASC_NODE":316.3295,"ARG_OF_PERICENTER":82.7962,"MEAN_ANOMALY":277.3343,"EPHEMERIS_TYPE":0,"CLASSIFICATION_TYPE":"U","NORAD_CAT_ID":55834,"ELEMENT_SET_NO":999,"REV_AT_EPOCH":15141,"BSTAR":0.00010693999999999999,"MEAN_MOTION_DOT":5.6e-07,"MEAN_MOTION_DDOT":0.0}]