ONEWEB-0658             
1 55819U 23029Z   26111.28146051  .00000088  00000+0  18778-3 0  9991
2 55819  87.9168 316.2950 0001970  74.9401 285.1950 13.19724187151412
ONEWEB-0660             
1 55820U 23029AA  26111.41890921  .00000097  00000+0  22748-3 0  9992
2 55820  87.8924 301.0268 0002121  89.6314 270.5059 13.14503795151943
ONEWEB-0661             
1 55821U 23029AB  26111.22544696  .00000005  00000+0 -20796-4 0  9999
2 55821  87.8922 301.1170 0002065  92.5284 267.6082 13.14502694151907
ONEWEB-0662             
1 55822U 23029AC  26111.26033081 -.00000059  00000+0 -19296-3 0  9997
2 55822  87.8912 301.1175 0002077  89.0502 271.0865 13.14502703151953
ONEWEB-0663             
1 55823U 23029AD  26110.89436003  .00000070  00000+0  13953-3 0  9992
2 55823  87.9141 285.9366 0002172  86.1109 274.0273 13.20865042153589
ONEWEB-0664             
1 55824U 23029AE  26111.37387561 -.00000026  00000+0 -95084-4 0  9990
2 55824  87.9124 285.8282 0002191 101.4102 258.7278 13.20769178153646
ONEWEB-0665             
1 55825U 23029AF  26111.22227304  .00000016  00000+0  79537-5 0  9996
2 55825  87.8918 301.0983 0002045  86.2112 273.9251 13.14501596151925
ONEWEB-0666             
1 55826U 23029AG  26111.21602584 -.00000296  00000+0 -75938-3 0  9994
2 55826  87.9127 285.8493 0001126 100.7047 259.4213 13.20770172153634
ONEWEB-0667             
1 55827U 23029AH  26111.20971815  .00000070  00000+0  13976-3 0  9992
2 55827  87.9144 285.7986 0001979  93.5325 266.6035 13.20773319153621
ONEWEB-0669             
1 55828U 23029AJ  26111.20497962  .00000102  00000+0  21914-3 0  9996
2 55828  87.9125 285.8171 0001842 113.3912 246.7415 13.20773304153625
ONEWEB-0670             
1 55829U 23029AK  26111.27619311  .00001466  00000+0  39208-2 0  9996
2 55829  87.8914 301.1058 0002353  94.3685 265.7713 13.14495650151954
ONEWEB-0671             
1 55830U 23029AL  26111.27672127  .00000070  00000+0  14341-3 0  9994
2 55830  87.9159 316.3263 0001964  86.6383 273.4974 13.19724708151397
ONEWEB-0672             
1 55831U 23029AM  26111.20025624  .00000116  00000+0  25244-3 0  9997
2 55831  87.9135 285.8091 0001562 100.2763 259.8546 13.20769993153628
ONEWEB-0673             
1 55832U 23029AN  26110.79890821  .00000048  00000+0  87463-4 0  9996
2 55832  87.9172 316.4084 0001926  88.1768 271.9585 13.19726132151336
ONEWEB-0674             
1 55833U 23029AP  26111.24447389 -.00000190  00000+0 -54740-3 0  9996
2 55833  87.8916 301.0888 0002105  98.2048 261.9320 13.14502173151931
ONEWEB-0675             
1 55834U 23029AQ  26111.26881485  .00000056  00000+0  10694-3 0  9997
2 55834  87.9158 316.3295 0001521  82.7962 277.3343 13.19724034151412
